STARLINK-1775
1 46681U 20073M   26090.83335647  .00357118  00000+0  12901-2 0  9992
2 46681  53.0391  99.0250 0004213  73.7125 106.2008 15.87158517  6021
